NORAD_CAT_ID,OBJECT_NAME,OBJECT_TYPE,EPOCH,MEAN_MOTION,ECCENTRICITY,INCLINATION,RA_OF_ASC_NODE,ARG_OF_PERICENTER,MEAN_ANOMALY,BSTAR,MEAN_MOTION_DOT,MEAN_MOTION_DDOT,TLE_LINE0,TLE_LINE1,TLE_LINE2,SEMIMAJOR_AXIS,PERIOD,APOGEE,PERIGEE,DECAYED
52644.0,STARLINK-3985,PAYLOAD,2023-03-09 22:12:36,15.08864596,0.0001813,53.2141,138.1962,96.7846,263.3353,0.0025861,0.00041138,0.0,0 STARLINK-3985,1 52644U 22052AY  23068.92541883  .00041138  00000-0  25861-2 0  9992,2 52644  53.2141 138.1962 0001813  96.7846 263.3353 15.08864596 46087,6917.805,95.436,540.924,538.416,0.0
52644.0,STARLINK-3985,PAYLOAD,2023-03-10 10:55:40,15.08864885,0.0001409,53.2146,135.8197,91.4832,268.6322,0.00084738,0.00013233,0.0,0 STARLINK-3985,1 52644U 22052AY  23069.45533220  .00013233  00000-0  84738-3 0  9991,2 52644  53.2146 135.8197 0001409  91.4832 268.6322 15.08864885 46168,6917.804,95.436,540.644,538.695,0.0
52644.0,STARLINK-3985,PAYLOAD,2023-03-11 07:35:42,15.08837194,0.0001191,53.2152,131.9503,117.8861,242.2252,0.00045216,6.915e-05,0.0,0 STARLINK-3985,1 52644U 22052AY  23070.31645950  .00006915  00000-0  45216-3 0  9999,2 52644  53.2152 131.9503 0001191 117.8861 242.2252 15.08837194 46293,6917.889,95.438,540.578,538.93,0.0
52644.0,STARLINK-3985,PAYLOAD,2023-03-11 10:46:28,15.08833234,0.0001112,53.2144,131.356,94.9992,265.1127,0.00021579,3.148e-05,0.0,0 STARLINK-3985,1 52644U 22052AY  23070.44894140  .00003148  00000-0  21579-3 0  9991,2 52644  53.2144 131.3560 0001112  94.9992 265.1127 15.08833234 45930,6917.901,95.438,540.535,538.997,0.0
52644.0,STARLINK-3985,PAYLOAD,2023-03-11 13:57:14,15.08839795,0.0001125,53.2147,130.7623,82.041,278.071,0.00025821,3.824e-05,0.0,0 STARLINK-3985,1 52644U 22052AY  23070.58142132  .00003824  00000-0  25821-3 0  9998,2 52644  53.2147 130.7623 0001125  82.0410 278.0710 15.08839795 45954,6917.881,95.438,540.524,538.968,0.0
52644.0,STARLINK-3985,PAYLOAD,2023-03-12 02:40:20,15.08823743,0.0001104,53.2148,128.3831,90.8698,269.2421,0.00014033,1.945e-05,0.0,0 STARLINK-3985,1 52644U 22052AY  23071.11134776  .00001945  00000-0  14033-3 0  9998,2 52644  53.2148 128.3831 0001104  90.8698 269.2421 15.08823743 46410,6917.93,95.439,540.559,539.031,0.0
52644.0,STARLINK-3985,PAYLOAD,2023-03-12 04:15:43,15.08829333,0.0001196,53.2149,128.0868,85.8344,274.2785,0.00033124,4.986e-05,0.0,0 STARLINK-3985,1 52644U 22052AY  23071.17758721  .00004986  00000-0  33124-3 0  9996,2 52644  53.2149 128.0868 0001196  85.8344 274.2785 15.08829333 46040,6917.913,95.438,540.605,538.951,0.0
52644.0,STARLINK-3985,PAYLOAD,2023-03-12 10:37:16,15.08847615,0.0001385,53.2157,126.8982,78.0126,282.1021,0.0017879,0.00028287,0.0,0 STARLINK-3985,1 52644U 22052AY  23071.44255014  .00028287  00000-0  17879-2 0  9991,2 52644  53.2157 126.8982 0001385  78.0126 282.1021 15.08847615 46464,6917.857,95.437,540.68,538.764,0.0
52644.0,STARLINK-3985,PAYLOAD,2023-03-13 04:06:30,15.08851909,0.0001327,53.2148,123.6254,113.776,246.3372,0.001034,0.00016212,0.0,0 STARLINK-3985,1 52644U 22052AY  23072.17118681  .00016212  00000-0  10340-2 0  9991,2 52644  53.2148 123.6254 0001327 113.7760 246.3372 15.08851909 46572,6917.844,95.437,540.627,538.791,0.0
52644.0,STARLINK-3985,PAYLOAD,2023-03-14 02:21:54,15.08847041,0.0002993,53.215,119.468,61.6881,298.4413,0.00046236,7.079e-05,0.0,0 STARLINK-3985,1 52644U 22052AY  23073.09854961  .00007079  00000-0  46236-3 0  9996,2 52644  53.2150 119.4680 0002993  61.6881 298.4413 15.08847041 46718,6917.859,95.437,541.794,537.653,0.0
52644.0,STARLINK-3985,PAYLOAD,2023-03-14 10:18:50,15.08834391,0.0001837,53.2156,117.9755,81.3339,278.7861,0.00022549,3.302e-05,0.0,0 STARLINK-3985,1 52644U 22052AY  23073.42974957  .00003302  00000-0  22549-3 0  9997,2 52644  53.2156 117.9755 0001837  81.3339 278.7861 15.08834391 46760,6917.898,95.438,541.033,538.492,0.0
52644.0,STARLINK-3985,PAYLOAD,2023-03-14 13:29:36,15.08848067,0.0001387,53.2144,117.3785,98.2375,261.8774,0.00013456,1.855e-05,0.0,0 STARLINK-3985,1 52644U 22052AY  23073.56222533  .00001855  00000-0  13456-3 0  9996,2 52644  53.2144 117.3785 0001387  98.2375 261.8774 15.08848067 46403,6917.856,95.437,540.68,538.761,0.0
52644.0,STARLINK-3985,PAYLOAD,2023-03-14 19:51:08,15.08846354,0.0001315,53.2145,116.1903,83.0719,277.0423,0.00043655,6.668e-05,0.0,0 STARLINK-3985,1 52644U 22052AY  23073.82718706  .00006668  00000-0  43655-3 0  9998,2 52644  53.2145 116.1903 0001315  83.0719 277.0423 15.08846354 46449,6917.861,95.437,540.636,538.816,0.0
52644.0,STARLINK-3985,PAYLOAD,2023-03-15 10:09:36,15.08869763,0.0001491,53.2149,113.5139,82.8239,277.2923,0.0010204,0.00016002,0.0,0 STARLINK-3985,1 52644U 22052AY  23074.42333951  .00016002  00000-0  10204-2 0  9996,2 52644  53.2149 113.5139 0001491  82.8239 277.2923 15.08869763 46912,6917.789,95.436,540.686,538.623,0.0
52644.0,STARLINK-3985,PAYLOAD,2023-03-15 19:41:55,15.08857644,0.0001355,53.2148,111.7296,92.0973,268.0174,0.00042565,6.496e-05,0.0,0 STARLINK-3985,1 52644U 22052AY  23074.82077736  .00006496  00000-0  42565-3 0  9998,2 52644  53.2148 111.7296 0001355  92.0973 268.0174 15.08857644 46979,6917.826,95.436,540.629,538.754,0.0
52644.0,STARLINK-3985,PAYLOAD,2023-03-16 11:35:46,15.08839176,0.0001148,53.2145,108.7543,101.5375,258.5746,0.00036372,5.505e-05,0.0,0 STARLINK-3985,1 52644U 22052AY  23075.48318003  .00005505  00000-0  36372-3 0  9995,2 52644  53.2145 108.7543 0001148 101.5375 258.5746 15.08839176 47070,6917.883,95.438,540.542,538.954,0.0
52644.0,STARLINK-3985,PAYLOAD,2023-03-16 19:32:43,15.08825332,0.0001299,53.2156,107.2664,104.98,255.1336,0.00017657,2.522e-05,0.0,0 STARLINK-3985,1 52644U 22052AY  23075.81438732  .00002522  00000-0  17657-3 0  9995,2 52644  53.2156 107.2664 0001299 104.9800 255.1336 15.08825332 47120,6917.925,95.438,540.689,538.892,0.0
52644.0,STARLINK-3985,PAYLOAD,2023-03-17 13:01:58,15.0882288,0.0001123,53.2152,103.9967,99.3546,260.7573,0.00066707,0.00010339,0.0,0 STARLINK-3985,1 52644U 22052AY  23076.54303852  .00010339  00000-0  66707-3 0  9995,2 52644  53.2152 103.9967 0001123  99.3546 260.7573 15.08822880 46854,6917.933,95.439,540.575,539.021,0.0
52644.0,STARLINK-3985,PAYLOAD,2023-03-17 19:23:30,15.08837858,0.0001169,53.2151,102.8071,101.5252,258.5871,0.00062877,9.733e-05,0.0,0 STARLINK-3985,1 52644U 22052AY  23076.80799700  .00009733  00000-0  62877-3 0  9995,2 52644  53.2151 102.8071 0001169 101.5252 258.5871 15.08837858 46898,6917.887,95.438,540.561,538.943,0.0
52644.0,STARLINK-3985,PAYLOAD,2023-03-18 08:06:35,15.08862426,0.0001163,53.2154,100.4278,97.1985,262.9139,0.0011169,0.00017543,0.0,0 STARLINK-3985,1 52644U 22052AY  23077.33791177  .00017543  00000-0  11169-2 0  9999,2 52644  53.2154 100.4278 0001163  97.1985 262.9139 15.08862426 47358,6917.812,95.436,540.481,538.872,0.0
52644.0,STARLINK-3985,PAYLOAD,2023-03-18 12:52:44,15.08869964,0.000117,53.2153,99.5355,97.2082,262.9043,0.0010621,0.0001667,0.0,0 STARLINK-3985,1 52644U 22052AY  23077.53662777  .00016670  00000-0  10621-2 0  9996,2 52644  53.2153  99.5355 0001170  97.2082 262.9043 15.08869964 47008,6917.789,95.436,540.463,538.844,0.0
52644.0,STARLINK-3985,PAYLOAD,2023-03-19 07:57:22,15.08855255,8.69e-05,53.2147,95.9697,90.5503,269.5589,0.0005934,9.173e-05,0.0,0 STARLINK-3985,1 52644U 22052AY  23078.33150802  .00009173  00000-0  59340-3 0  9998,2 52644  53.2147  95.9697 0000869  90.5503 269.5589 15.08855255 47509,6917.834,95.437,540.3,539.098,0.0
52644.0,STARLINK-3985,PAYLOAD,2023-03-19 17:29:41,15.08835329,8.73e-05,53.2146,94.1846,85.3623,274.7469,0.0017424,0.00027548,0.0,0 STARLINK-3985,1 52644U 22052AY  23078.72894986  .00027548  00000-0  17424-2 0  9991,2 52644  53.2146  94.1846 0000873  85.3623 274.7469 15.08835329 47566,6917.895,95.438,540.364,539.156,0.0
52644.0,STARLINK-3985,PAYLOAD,2023-03-20 04:37:23,15.08843444,0.0001219,53.2155,92.1037,116.206,243.9058,0.00063384,9.815e-05,0.0,0 STARLINK-3985,1 52644U 22052AY  23079.19263170  .00009815  00000-0  63384-3 0  9992,2 52644  53.2155  92.1037 0001219 116.2060 243.9058 15.08843444 47637,6917.87,95.437,540.578,538.892,0.0
52644.0,STARLINK-3985,PAYLOAD,2023-03-20 07:48:09,15.0884424,0.0001013,53.215,91.5085,104.2145,255.896,0.00043787,6.689e-05,0.0,0 STARLINK-3985,1 52644U 22052AY  23079.32510957  .00006689  00000-0  43787-3 0  9996,2 52644  53.2150  91.5085 0001013 104.2145 255.8960 15.08844240 47270,6917.867,95.437,540.433,539.032,0.0
52644.0,STARLINK-3985,PAYLOAD,2023-03-20 17:20:28,15.08832164,0.0001167,53.2155,89.7227,94.5635,265.549,0.00018751,2.697e-05,0.0,0 STARLINK-3985,1 52644U 22052AY  23079.72255424  .00002697  00000-0  18751-3 0  9993,2 52644  53.2155  89.7227 0001167  94.5635 265.5490 15.08832164 47714,6917.904,95.438,540.577,538.962,0.0
52644.0,STARLINK-3985,PAYLOAD,2023-03-21 07:38:56,15.08838609,9.66e-05,53.215,87.0471,104.7496,255.3603,0.00023093,3.389e-05,0.0,0 STARLINK-3985,1 52644U 22052AY  23080.31871467  .00003389  00000-0  23093-3 0  9995,2 52644  53.2150  87.0471 0000966 104.7496 255.3603 15.08838609 47427,6917.885,95.438,540.418,539.081,0.0
52644.0,STARLINK-3985,PAYLOAD,2023-03-21 17:11:15,15.08839248,9.33e-05,53.215,85.2631,99.552,260.5578,0.00024634,3.635e-05,0.0,0 STARLINK-3985,1 52644U 22052AY  23080.71615609  .00003635  00000-0  24634-3 0  9999,2 52644  53.2150  85.2631 0000933  99.5520 260.5578 15.08839248 47483,6917.883,95.438,540.393,539.102,0.0
52644.0,STARLINK-3985,PAYLOAD,2023-03-22 04:18:57,15.08841085,9.59e-05,53.2151,83.1818,98.0582,262.0519,0.00031502,4.729e-05,0.0,0 STARLINK-3985,1 52644U 22052AY  23081.17983714  .00004729  00000-0  31502-3 0  9992,2 52644  53.2151  83.1818 0000959  98.0582 262.0519 15.08841085 47932,6917.877,95.437,540.405,539.079,0.0
52644.0,STARLINK-3985,PAYLOAD,2023-03-22 12:15:53,15.08853851,0.0001092,53.2153,81.694,95.5287,264.583,0.00059622,9.217e-05,0.0,0 STARLINK-3985,1 52644U 22052AY  23081.51103361  .00009217  00000-0  59622-3 0  9992,2 52644  53.2153  81.6940 0001092  95.5287 264.5830 15.08853851 47988,6917.838,95.437,540.458,538.948,0.0
